NORAD_CAT_ID,OBJECT_NAME,OBJECT_TYPE,EPOCH,MEAN_MOTION,ECCENTRICITY,INCLINATION,RA_OF_ASC_NODE,ARG_OF_PERICENTER,MEAN_ANOMALY,BSTAR,MEAN_MOTION_DOT,MEAN_MOTION_DDOT,TLE_LINE0,TLE_LINE1,TLE_LINE2,SEMIMAJOR_AXIS,PERIOD,APOGEE,PERIGEE,DECAYED
55920.0,STARLINK-5862,PAYLOAD,2024-08-05 15:59:33,14.98352225,0.0002925,70.0029,309.6189,270.586,89.4963,0.00045155,5.302e-05,0.0,0 STARLINK-5862,1 55920U 23037G   24218.66636053  .00005302  00000-0  45155-3 0  9991,2 55920  70.0029 309.6189 0002925 270.5860  89.4963 14.98352225 76949,6950.124,96.106,574.022,569.956,0.0
55920.0,STARLINK-5862,PAYLOAD,2024-08-06 00:00:14,14.98331492,0.0003053,70.0033,308.7767,266.1384,93.9426,-0.00011224,-1.432e-05,0.0,0 STARLINK-5862,1 55920U 23037G   24219.00016650 -.00001432  00000-0 -11224-3 0  9997,2 55920  70.0033 308.7767 0003053 266.1384  93.9426 14.98331492 77332,6950.188,96.107,574.175,569.931,0.0
55920.0,STARLINK-5862,PAYLOAD,2024-08-06 14:25:27,14.98322665,0.0003058,70.0026,307.2639,268.0515,92.0294,-0.00024038,-2.959e-05,0.0,0 STARLINK-5862,1 55920U 23037G   24219.60101239 -.00002959  00000-0 -24038-3 0  9993,2 55920  70.0026 307.2639 0003058 268.0515  92.0294 14.98322665 77085,6950.216,96.107,574.206,569.955,0.0
55920.0,STARLINK-5862,PAYLOAD,2024-08-06 16:01:35,14.98323491,0.0003056,70.0026,307.0956,267.9965,92.0845,-0.00020252,-2.508e-05,0.0,0 STARLINK-5862,1 55920U 23037G   24219.66777243 -.00002508  00000-0 -20252-3 0  9997,2 55920  70.0026 307.0956 0003056 267.9965  92.0845 14.98323491 77439,6950.213,96.107,574.202,569.954,0.0
55920.0,STARLINK-5862,PAYLOAD,2024-08-07 12:51:20,14.98326159,0.0002891,70.0025,304.9075,266.0739,94.0089,7.5913e-06,-2e-08,0.0,0 STARLINK-5862,1 55920U 23037G   24220.53565831 -.00000002  00000-0  75913-5 0  9995,2 55920  70.0025 304.9075 0002891 266.0739  94.0089 14.98326159 77224,6950.205,96.107,574.079,570.06,0.0
55920.0,STARLINK-5862,PAYLOAD,2024-08-07 16:03:36,14.98330331,0.0002885,70.0025,304.5708,266.0912,93.9917,0.00011144,1.237e-05,0.0,0 STARLINK-5862,1 55920U 23037G   24220.66917665  .00001237  00000-0  11144-3 0  9999,2 55920  70.0025 304.5708 0002885 266.0912  93.9917 14.98330331 77583,6950.192,96.107,574.062,570.052,0.0
55920.0,STARLINK-5862,PAYLOAD,2024-08-08 12:53:20,14.98350749,0.000303,70.0022,302.3831,266.4039,93.6774,0.00075481,8.93e-05,0.0,0 STARLINK-5862,1 55920U 23037G   24221.53704804  .00008930  00000-0  75481-3 0  9996,2 55920  70.0022 302.3831 0003030 266.4039  93.6774 14.98350749 77370,6950.129,96.106,574.1,569.888,0.0
55920.0,STARLINK-5862,PAYLOAD,2024-08-08 14:29:28,14.9835748,0.0003014,70.0025,302.215,266.6413,93.4401,0.00096492,0.00011447,0.0,0 STARLINK-5862,1 55920U 23037G   24221.60380715  .00011447  00000-0  96492-3 0  9997,2 55920  70.0025 302.2150 0003014 266.6413  93.4401 14.98357480 77729,6950.108,96.105,574.068,569.878,0.0
55920.0,STARLINK-5862,PAYLOAD,2024-08-08 22:30:09,14.98353891,0.0003275,70.0026,301.3735,265.1225,94.956,0.00063514,7.498e-05,0.0,0 STARLINK-5862,1 55920U 23037G   24221.93760521  .00007498  00000-0  63514-3 0  9990,2 55920  70.0026 301.3735 0003275 265.1225  94.9560 14.98353891 77435,6950.119,96.105,574.26,569.708,0.0
55920.0,STARLINK-5862,PAYLOAD,2024-08-09 12:55:21,14.98340406,0.0003238,70.0019,299.8579,264.1839,95.8951,0.00026424,3.062e-05,0.0,0 STARLINK-5862,1 55920U 23037G   24222.53844406  .00003062  00000-0  26424-3 0  9994,2 55920  70.0019 299.8579 0003238 264.1839  95.8951 14.98340406 77862,6950.161,96.106,574.276,569.775,0.0
55920.0,STARLINK-5862,PAYLOAD,2024-08-09 16:07:37,14.98344042,0.0003289,70.0018,299.521,263.5103,96.5682,0.00070405,8.321e-05,0.0,0 STARLINK-5862,1 55920U 23037G   24222.67196342  .00008321  00000-0  70405-3 0  9999,2 55920  70.0018 299.5210 0003289 263.5103  96.5682 14.98344042 77547,6950.149,96.106,574.3,569.729,0.0
55920.0,STARLINK-5862,PAYLOAD,2024-08-10 04:56:42,14.98334149,0.0002828,70.003,298.1744,253.6585,106.4263,0.00077082,9.117e-05,0.0,0 STARLINK-5862,1 55920U 23037G   24223.20604745  .00009117  00000-0  77082-3 0  9992,2 55920  70.0030 298.1744 0002828 253.6585 106.4263 14.98334149 77969,6950.18,96.107,574.011,570.08,0.0
55920.0,STARLINK-5862,PAYLOAD,2024-08-10 14:33:30,14.98342477,0.0003088,70.0019,297.164,263.2866,96.7942,0.000438,5.139e-05,0.0,0 STARLINK-5862,1 55920U 23037G   24223.60660406  .00005139  00000-0  43800-3 0  9993,2 55920  70.0019 297.1640 0003088 263.2866  96.7942 14.98342477 77685,6950.154,96.106,574.166,569.873,0.0
55920.0,STARLINK-5862,PAYLOAD,2024-08-10 22:34:11,14.98333294,0.0002672,70.0033,296.3224,271.0598,89.0255,0.00045607,5.353e-05,0.0,0 STARLINK-5862,1 55920U 23037G   24223.94040767  .00005353  00000-0  45607-3 0  9997,2 55920  70.0033 296.3224 0002672 271.0598  89.0255 14.98333294 78070,6950.183,96.107,573.905,570.191,0.0
55920.0,STARLINK-5862,PAYLOAD,2024-08-11 11:23:16,14.98326581,0.0002869,70.0019,294.9746,266.3322,93.7509,0.00045482,5.337e-05,0.0,0 STARLINK-5862,1 55920U 23037G   24224.47449113  .00005337  00000-0  45482-3 0  9997,2 55920  70.0019 294.9746 0002869 266.3322  93.7509 14.98326581 78151,6950.203,96.107,574.062,570.074,0.0
55920.0,STARLINK-5862,PAYLOAD,2024-08-11 22:36:11,14.98337765,0.0003011,70.0017,293.7967,269.9097,90.1717,0.00020792,2.389e-05,0.0,0 STARLINK-5862,1 55920U 23037G   24224.94180531  .00002389  00000-0  20792-3 0  9996,2 55920  70.0017 293.7967 0003011 269.9097  90.1717 14.98337765 77886,6950.169,96.107,574.127,569.941,0.0
55920.0,STARLINK-5862,PAYLOAD,2024-08-12 05:00:44,14.98339719,0.0003034,70.0015,293.1232,270.5905,89.4906,0.00027626,3.206e-05,0.0,0 STARLINK-5862,1 55920U 23037G   24225.20884294  .00003206  00000-0  27626-3 0  9995,2 55920  70.0015 293.1232 0003034 270.5905  89.4906 14.98339719 78269,6950.163,96.106,574.137,569.919,0.0
55920.0,STARLINK-5862,PAYLOAD,2024-08-12 11:25:15,14.98354746,0.000311,70.0015,292.4521,266.1311,93.9493,0.00055119,6.494e-05,0.0,0 STARLINK-5862,1 55920U 23037G   24225.47587397  .00006494  00000-0  55119-3 0  9998,2 55920  70.0015 292.4521 0003110 266.1311  93.9493 14.98354746 78302,6950.116,96.105,574.143,569.82,0.0
55920.0,STARLINK-5862,PAYLOAD,2024-08-13 05:02:44,14.98337823,0.0003013,70.0013,290.598,273.7784,86.3031,0.00012572,1.408e-05,0.0,0 STARLINK-5862,1 55920U 23037G   24226.21023766  .00001408  00000-0  12572-3 0  9992,2 55920  70.0013 290.5980 0003013 273.7784  86.3031 14.98337823 78411,6950.169,96.106,574.128,569.94,0.0
55920.0,STARLINK-5862,PAYLOAD,2024-08-13 11:27:17,14.98322902,0.0002502,70.0024,289.9279,259.2098,100.8779,-0.00033382,-4.073e-05,0.0,0 STARLINK-5862,1 55920U 23037G   24226.47728091 -.00004073  00000-0 -33382-3 0  9998,2 55920  70.0024 289.9279 0002502 259.2098 100.8779 14.98322902 78115,6950.215,96.107,573.819,570.341,0.0
55920.0,STARLINK-5862,PAYLOAD,2024-08-13 21:04:05,14.98316365,0.0002378,70.0025,288.9158,267.7992,92.2894,-0.00042062,-5.106e-05,0.0,0 STARLINK-5862,1 55920U 23037G   24226.87784703 -.00005106  00000-0 -42062-3 0  9997,2 55920  70.0025 288.9158 0002378 267.7992  92.2894 14.98316365 78511,6950.235,96.108,573.753,570.447,0.0
55920.0,STARLINK-5862,PAYLOAD,2024-08-14 13:05:27,14.98317289,0.0002785,70.001,287.2327,268.0745,92.0095,-0.00028965,-3.546e-05,0.0,0 STARLINK-5862,1 55920U 23037G   24227.54545352 -.00003546  00000-0 -28965-3 0  9999,2 55920  70.0010 287.2327 0002785 268.0745  92.0095 14.98317289 78277,6950.232,96.108,574.033,570.162,0.0
55920.0,STARLINK-5862,PAYLOAD,2024-08-15 05:06:48,14.98318508,0.0002757,70.0008,285.5498,266.3619,93.7225,0.00026459,3.064e-05,0.0,0 STARLINK-5862,1 55920U 23037G   24228.21305956  .00003064  00000-0  26459-3 0  9997,2 55920  70.0008 285.5498 0002757 266.3619  93.7225 14.98318508 78711,6950.228,96.108,574.01,570.177,0.0
55920.0,STARLINK-5862,PAYLOAD,2024-08-15 09:55:12,14.98320576,0.0002765,70.0008,285.0446,268.0121,92.0721,0.00028659,3.327e-05,0.0,0 STARLINK-5862,1 55920U 23037G   24228.41334061  .00003327  00000-0  28659-3 0  9994,2 55920  70.0008 285.0446 0002765 268.0121  92.0721 14.98320576 78402,6950.222,96.108,574.009,570.165,0.0
55920.0,STARLINK-5862,PAYLOAD,2024-08-16 05:08:49,14.9833244,0.0002869,70.0004,283.0239,268.7421,91.3409,0.00048093,5.65e-05,0.0,0 STARLINK-5862,1 55920U 23037G   24229.21445860  .00005650  00000-0  48093-3 0  9998,2 55920  70.0004 283.0239 0002869 268.7421  91.3409 14.98332440 78869,6950.185,96.107,574.044,570.056,0.0
55920.0,STARLINK-5862,PAYLOAD,2024-08-16 09:57:13,14.98340812,0.0002943,70.0006,282.5185,268.4093,91.6729,0.00059094,6.967e-05,0.0,0 STARLINK-5862,1 55920U 23037G   24229.41473671  .00006967  00000-0  59094-3 0  9996,2 55920  70.0006 282.5185 0002943 268.4093  91.6729 14.98340812 78556,6950.159,96.106,574.07,569.979,0.0
55920.0,STARLINK-5862,PAYLOAD,2024-08-17 05:10:49,14.98344819,0.0002974,70.0004,280.4988,270.4248,89.657,0.00032596,3.8e-05,0.0,0 STARLINK-5862,1 55920U 23037G   24230.21585060  .00003800  00000-0  32596-3 0  9993,2 55920  70.0004 280.4988 0002974 270.4248  89.6570 14.98344819 79015,6950.147,96.106,574.079,569.945,0.0
55920.0,STARLINK-5862,PAYLOAD,2024-08-17 08:23:05,14.98344408,0.0003012,70.0003,280.1623,270.9676,89.1137,0.00028699,3.334e-05,0.0,0 STARLINK-5862,1 55920U 23037G   24230.34936970  .00003334  00000-0  28699-3 0  9998,2 55920  70.0003 280.1623 0003012 270.9676  89.1137 14.98344408 78692,6950.148,96.106,574.107,569.92,0.0
55920.0,STARLINK-5862,PAYLOAD,2024-08-18 05:12:50,14.98341393,0.0002838,70.0006,277.9747,267.9999,92.0835,0.00010687,1.183e-05,0.0,0 STARLINK-5862,1 55920U 23037G   24231.21724546  .00001183  00000-0  10687-3 0  9997,2 55920  70.0006 277.9747 0002838 267.9999  92.0835 14.98341393 79166,6950.158,96.106,573.995,570.05,0.0
55920.0,STARLINK-5862,PAYLOAD,2024-08-18 13:13:30,14.98341758,0.0002858,69.9989,277.1325,268.4077,91.6754,7.8582e-05,8.45e-06,0.0,0 STARLINK-5862,1 55920U 23037G   24231.55104397  .00000845  00000-0  78582-4 0  9993,2 55920  69.9989 277.1325 0002858 268.4077  91.6754 14.98341758 78879,6950.157,96.106,574.008,570.035,0.0
